[{"OBJECT_NAME":"XINGYUN-2 02","OBJECT_ID":"2020-028B","EPOCH":"2026-03-10T00:08:18.521088","MEAN_MOTION":15.11086378,"ECCENTRICITY":0.0009258,"INCLINATION":97.5114,"RA_OF_ASC_NODE":76.7595,"ARG_OF_PERICENTER":249.9829,"MEAN_ANOMALY":110.0404,"EPHEMERIS_TYPE":0,"CLASSIFICATION_TYPE":"U","NORAD_CAT_ID":45603,"ELEMENT_SET_NO":999,"REV_AT_EPOCH":31985,"BSTAR":0.00013296102,"MEAN_MOTION_DOT":2.163e-5,"MEAN_MOTION_DDOT":0},{"OBJECT_NAME":"STARLINK-4164","OBJECT_ID":"2022-086AS","EPOCH":"2026-03-09T19:31:35.370912","MEAN_MOTION":15.08824477,"ECCENTRICITY":0.00012812,"INCLINATION":53.2165,"RA_OF_ASC_NODE":183.5658,"ARG_OF_PERICENTER":87.221,"MEAN_ANOMALY":272.8929,"EPHEMERIS_TYPE":0,"CLASSIFICATION_TYPE":"U","NORAD_CAT_ID":53282,"ELEMENT_SET_NO":999,"REV_AT_EPOCH":20121,"BSTAR":-8.1993592e-5,"MEAN_MOTION_DOT":-1.592e-5,"MEAN_MOTION_DDOT":0}]
